$$SOE
2459580.500000000, A.D. 2022-Jan-01 00:00:00.0000, -5.959672137430041E+07, -3.555411523354461E+08, -8.452606472208874E+07,
2459587.500000000, A.D. 2022-Jan-08 00:00:00.0000, -4.793502820209798E+07, -3.551980839450138E+08, -8.410291949544120E+07,
2459594.500000000, A.D. 2022-Jan-15 00:00:00.0000, -3.622672932813541E+07, -3.545094535366588E+08, -8.359794959055978E+07,
2459601.500000000, A.D. 2022-Jan-22 00:00:00.0000, -2.448259328071469E+07, -3.534698971446891E+08, -8.301022347990729E+07,
2459608.500000000, A.D. 2022-Jan-29 00:00:00.0000, -1.271381367515283E+07, -3.520742956390468E+08, -8.233887964588891E+07,
2459615.500000000, A.D. 2022-Feb-05 00:00:00.0000, -9.320148319472113E+05, -3.503178033650153E+08, -8.158313304499607E+07,
2459622.500000000, A.D. 2022-Feb-12 00:00:00.0000, 1.085074639693680E+07, -3.481958793746877E+08, -8.074228216395597E+07,
2459629.500000000, A.D. 2022-Feb-19 00:00:00.0000, 2.262198147720175E+07, -3.457043188491949E+08, -7.981571633962585E+07,
2459636.500000000, A.D. 2022-Feb-26 00:00:00.0000, 3.436877262343033E+07, -3.428392853808085E+08, -7.880292326274884E+07,
2459643.500000000, A.D. 2022-Mar-05 00:00:00.0000, 4.607777719839436E+07, -3.395973446538844E+08, -7.770349670602793E+07,
2459650.500000000, A.D. 2022-Mar-12 00:00:00.0000, 5.773523453542804E+07, -3.359754994860013E+08, -7.651714447125441E+07,
2459657.500000000, A.D. 2022-Mar-19 00:00:00.0000, 6.932697549214669E+07, -3.319712260671558E+08, -7.524369652157797E+07,
2459664.500000000, A.D. 2022-Mar-26 00:00:00.0000, 8.083843499733986E+07, -3.275825112367840E+08, -7.388311325598207E+07,
2459671.500000000, A.D. 2022-Apr-02 00:00:00.0000, 9.225466789732403E+07, -3.228078906560450E+08, -7.243549388438953E+07,
2459678.500000000, A.D. 2022-Apr-09 00:00:00.0000, 1.035603686054563E+08, -3.176464876394701E+08, -7.090108486852099E+07,
2459685.500000000, A.D. 2022-Apr-16 00:00:00.0000, 1.147398951302066E+08, -3.120980517253704E+08, -6.928028834016594E+07,
2459692.500000000, A.D. 2022-Apr-23 00:00:00.0000, 1.257772964117596E+08, -3.061629955953006E+08, -6.757367021495140E+07,
2459699.500000000, A.D. 2022-Apr-30 00:00:00.0000, 1.366563412701458E+08, -2.998424322401655E+08, -6.578196792659895E+07,
2459706.500000000, A.D. 2022-May-07 00:00:00.0000, 1.473605521700977E+08, -2.931382139566475E+08, -6.390609812726317E+07,
2459713.500000000, A.D. 2022-May-14 00:00:00.0000, 1.578732452981672E+08, -2.860529697073914E+08, -6.194716412813354E+07,
2459720.500000000, A.D. 2022-May-21 00:00:00.0000, 1.681775749851086E+08, -2.785901396204172E+08, -5.990646272005920E+07,
2459727.500000000, A.D. 2022-May-28 00:00:00.0000, 1.782565820127267E+08, -2.707540070889874E+08, -5.778549029310679E+07,
2459734.500000000, A.D. 2022-Jun-04 00:00:00.0000, 1.880932460461588E+08, -2.625497282670424E+08, -5.558594818993048E+07,
2459741.500000000, A.D. 2022-Jun-11 00:00:00.0000, 1.976705422334185E+08, -2.539833584282265E+08, -5.330974718914196E+07,
2459748.500000000, A.D. 2022-Jun-18 00:00:00.0000, 2.069715018307100E+08, -2.450618746359604E+08, -5.095901100209375E+07,
2459755.500000000, A.D. 2022-Jun-25 00:00:00.0000, 2.159792766204937E+08, -2.357931942114797E+08, -4.853607866805845E+07,
2459762.500000000, A.D. 2022-Jul-02 00:00:00.0000, 2.246772069126570E+08, -2.261861885202665E+08, -4.604350574745303E+07,
2459769.500000000, A.D. 2022-Jul-09 00:00:00.0000, 2.330488930973411E+08, -2.162506913725700E+08, -4.348406422401991E+07,
2459776.500000000, A.D. 2022-Jul-16 00:00:00.0000, 2.410782701922775E+08, -2.059975004655029E+08, -4.086074092315175E+07,
2459783.500000000, A.D. 2022-Jul-23 00:00:00.0000, 2.487496825989818E+08, -1.954383713476577E+08, -3.817673415175997E+07,
2459790.500000000, A.D. 2022-Jul-30 00:00:00.0000, 2.560479584820060E+08, -1.845860068735170E+08, -3.543544876985477E+07,
2459797.500000000, A.D. 2022-Aug-06 00:00:00.0000, 2.629584866301888E+08, -1.734540411830286E+08, -3.264048991847195E+07,
2459804.500000000, A.D. 2022-Aug-13 00:00:00.0000, 2.694672941781203E+08, -1.620570152256010E+08, -2.979565507332505E+07,
2459811.500000000, A.D. 2022-Aug-20 00:00:00.0000, 2.755611227677902E+08, -1.504103442060567E+08, -2.690492431516400E+07,
2459818.500000000, A.D. 2022-Aug-27 00:00:00.0000, 2.812275023282825E+08, -1.385302776594951E+08, -2.397244890145150E+07,
2459825.500000000, A.D. 2022-Sep-03 00:00:00.0000, 2.864548218099836E+08, -1.264338523586234E+08, -2.100253821733584E+07,
2459832.500000000, A.D. 2022-Sep-10 00:00:00.0000, 2.912323960523373E+08, -1.141388382407521E+08, -1.799964518765132E+07,
2459839.500000000, A.D. 2022-Sep-17 00:00:00.0000, 2.955505279266686E+08, -1.016636776897355E+08, -1.496835025839159E+07,
2459846.500000000, A.D. 2022-Sep-24 00:00:00.0000, 2.994005649702347E+08, -8.902741868228257E+07, -1.191334409221903E+07,
2459853.500000000, A.D. 2022-Oct-01 00:00:00.0000, 3.027749499662831E+08, -7.624964240038358E+07, -8.839409163234014E+06,
2459860.500000000, A.D. 2022-Oct-08 00:00:00.0000, 3.056672651705603E+08, -6.335038547489989E+07, -5.751400429705512E+06,
2459867.500000000, A.D. 2022-Oct-15 00:00:00.0000, 3.080722686518606E+08, -5.035005644727794E+07, -2.654225103428554E+06,
2459874.500000000, A.D. 2022-Oct-22 00:00:00.0000, 3.099859200794239E+08, -3.726934901197149E+07, 4.471783302181587E+05,
2459881.500000000, A.D. 2022-Oct-29 00:00:00.0000, 3.114053980803307E+08, -2.412915557518338E+07, 3.547861172555892E+06,
2459888.500000000, A.D. 2022-Nov-05 00:00:00.0000, 3.123291110226666E+08, -1.095047936644420E+07, 6.642885449037125E+06,
2459895.500000000, A.D. 2022-Nov-12 00:00:00.0000, 3.127566991641735E+08, 2.245655164109075E+06, 9.727344771497697E+06,
2459902.500000000, A.D. 2022-Nov-19 00:00:00.0000, 3.126890274970161E+08, 1.543829170498282E+07, 1.279638488067506E+07,
2459909.500000000, A.D. 2022-Nov-26 00:00:00.0000, 3.121281697409250E+08, 2.860662981796252E+07, 1.584522358847416E+07,
2459916.500000000, A.D. 2022-Dec-03 00:00:00.0000, 3.110773839747384E+08, 4.173011009420599E+07, 1.886916989321362E+07,
2459923.500000000, A.D. 2022-Dec-10 00:00:00.0000, 3.095410804001700E+08, 5.478849586893782E+07, 2.186364207236973E+07,
2459930.500000000, A.D. 2022-Dec-17 00:00:00.0000, 3.075247818223501E+08, 6.776195066628656E+07, 2.482418457724383E+07,
2459937.500000000, A.D. 2022-Dec-24 00:00:00.0000, 3.050350776127353E+08, 8.063111059693164E+07, 2.774648356751600E+07,
2459944.500000000, A.D. 2022-Dec-31 00:00:00.0000, 3.020795722452273E+08, 9.337715120542240E+07, 3.062638094119866E+07,
2459951.500000000, A.D. 2023-Jan-07 00:00:00.0000, 2.986668293121774E+08, 1.059818492289334E+08, 3.345988683301974E+07,
2459958.500000000, A.D. 2023-Jan-14 00:00:00.0000, 2.948063098755701E+08, 1.184276393891292E+08, 3.624319073759586E+07,
2459965.500000000, A.D. 2023-Jan-21 00:00:00.0000, 2.905083053685070E+08, 1.306976627872582E+08, 3.897267102460966E+07,
2459972.500000000, A.D. 2023-Jan-28 00:00:00.0000, 2.857838695722094E+08, 1.427758065516111E+08, 4.164490248534311E+07,
2459979.500000000, A.D. 2023-Feb-04 00:00:00.0000, 2.806447502892232E+08, 1.546467377199332E+08, 4.425666219194052E+07,
2459986.500000000, A.D. 2023-Feb-11 00:00:00.0000, 2.751033197179418E+08, 1.662959312219957E+08, 4.680493385638198E+07,
2459993.500000000, A.D. 2023-Feb-18 00:00:00.0000, 2.691725042205396E+08, 1.777096912878924E+08, 4.928691068435504E+07,
2460000.500000000, A.D. 2023-Feb-25 00:00:00.0000, 2.628657144421932E+08, 1.888751663518549E+08, 5.169999675850190E+07,
2460007.500000000, A.D. 2023-Mar-04 00:00:00.0000, 2.561967765136231E+08, 1.997803577786823E+08, 5.404180702994736E+07,
2460014.500000000, A.D. 2023-Mar-11 00:00:00.0000, 2.491798649312726E+08, 2.104141227862969E+08, 5.631016601754332E+07,
2460021.500000000, A.D. 2023-Mar-18 00:00:00.0000, 2.418294376631193E+08, 2.207661719344190E+08, 5.850310532096627E+07,
2460028.500000000, A.D. 2023-Mar-25 00:00:00.0000, 2.341601741146001E+08, 2.308270615806231E+08, 6.061886004637192E+07,
2460035.500000000, A.D. 2023-Apr-01 00:00:00.0000, 2.261869167365089E+08, 2.405881821618223E+08, 6.265586426015459E+07,
2460042.500000000, A.D. 2023-Apr-08 00:00:00.0000, 2.179246159390506E+08, 2.500417439943330E+08, 6.461274574562632E+07,
2460049.500000000, A.D. 2023-Apr-15 00:00:00.0000, 2.093882761734393E+08, 2.591807599571985E+08, 6.648832030052440E+07,
2460056.500000000, A.D. 2023-Apr-22 00:00:00.0000, 2.005929051306894E+08, 2.679990224853059E+08, 6.828158527595644E+07,
2460063.500000000, A.D. 2023-Apr-29 00:00:00.0000, 1.915534688836144E+08, 2.764910775847213E+08, 6.999171240040062E+07,
2460070.500000000, A.D. 2023-May-06 00:00:00.0000, 1.822848512408439E+08, 2.846521980848776E+08, 7.161804029634725E+07,
2460077.500000000, A.D. 2023-May-13 00:00:00.0000, 1.728018163164621E+08, 2.924783556478173E+08, 7.316006680107361E+07,
2460084.500000000, A.D. 2023-May-20 00:00:00.0000, 1.631189744916745E+08, 2.999661914314938E+08, 7.461744111827721E+07,
2460091.500000000, A.D. 2023-May-27 00:00:00.0000, 1.532507518704770E+08, 3.071129857356746E+08, 7.598995586077233E+07,
2460098.500000000, A.D. 2023-Jun-03 00:00:00.0000, 1.432113631667045E+08, 3.139166269827865E+08, 7.727753905318822E+07,
2460105.500000000, A.D. 2023-Jun-10 00:00:00.0000, 1.330147879027828E+08, 3.203755803142149E+08, 7.848024615527669E+07,
2460112.500000000, A.D. 2023-Jun-17 00:00:00.0000, 1.226747498476104E+08, 3.264888560044068E+08, 7.959825214874330E+07,
2460119.500000000, A.D. 2023-Jun-24 00:00:00.0000, 1.122046998386044E+08, 3.322559779803541E+08, 8.063184371144986E+07,
2460126.500000000, A.D. 2023-Jul-01 00:00:00.0000, 1.016178020583897E+08, 3.376769534778958E+08, 8.158141156548010E+07,
2460133.500000000, A.D. 2023-Jul-08 00:00:00.0000, 9.092692190668035E+07, 3.427522448285681E+08, 8.244744325381923E+07,
2460140.500000000, A.D. 2023-Jul-15 00:00:00.0000, 8.014461399752136E+07, 3.474827406858135E+08, 8.323051625674164E+07,
2460147.500000000, A.D. 2023-Jul-22 00:00:00.0000, 6.928311360783045E+07, 3.518697257796160E+08, 8.393129106395364E+07,
$$EOE